STARLINK-32773          
1 62571U 25006T   26068.03078091  .00029551  00000+0  10784-2 0  9997
2 62571  43.0026 296.1473 0002439 275.0117  85.0457 15.27599857 64761
KUIPER-00209            
1 67776U 26030N   26068.61786546  .00035298  00000+0  11963-2 0  9997
2 67776  51.8838 220.0775 0012191  59.1967 301.0215 15.30161950  5077
